NORAD_CAT_ID,OBJECT_NAME,OBJECT_TYPE,EPOCH,MEAN_MOTION,ECCENTRICITY,INCLINATION,RA_OF_ASC_NODE,ARG_OF_PERICENTER,MEAN_ANOMALY,BSTAR,MEAN_MOTION_DOT,MEAN_MOTION_DDOT,TLE_LINE0,TLE_LINE1,TLE_LINE2,SEMIMAJOR_AXIS,PERIOD,APOGEE,PERIGEE,DECAYED
52473.0,STARLINK-3879,PAYLOAD,2023-10-02 18:30:21,15.08843283,0.0001266,53.2162,89.6312,86.7108,273.4029,8.6552e-05,1.09e-05,0.0,0 STARLINK-3879,1 52473U 22049Y   23275.77108041  .00001090  00000-0  86552-4 0  9995,2 52473  53.2162  89.6312 0001266  86.7108 273.4029 15.08843283 78213,6917.87,95.437,540.611,538.86,0.0
52473.0,STARLINK-3879,PAYLOAD,2023-10-03 11:59:36,15.08838579,0.0001205,53.2161,86.3603,84.9685,275.1445,4.4895e-05,4.27e-06,0.0,0 STARLINK-3879,1 52473U 22049Y   23276.49972297  .00000427  00000-0  44895-4 0  9994,2 52473  53.2161  86.3603 0001205  84.9685 275.1445 15.08838579 78169,6917.885,95.438,540.583,538.916,0.0
52473.0,STARLINK-3879,PAYLOAD,2023-10-03 16:45:45,15.08842349,0.0001197,53.2164,85.4687,83.9141,276.1988,0.00013421,1.849e-05,0.0,0 STARLINK-3879,1 52473U 22049Y   23276.69844187  .00001849  00000-0  13421-3 0  9991,2 52473  53.2164  85.4687 0001197  83.9141 276.1988 15.08842349 78196,6917.873,95.437,540.566,538.91,0.0
52473.0,STARLINK-3879,PAYLOAD,2023-10-04 11:50:23,15.08842125,0.0001155,53.2167,81.8991,95.5965,264.5159,0.0001281,1.752e-05,0.0,0 STARLINK-3879,1 52473U 22049Y   23277.49332233  .00001752  00000-0  12810-3 0  9998,2 52473  53.2167  81.8991 0001155  95.5965 264.5159 15.08842125 78311,6917.874,95.437,540.538,538.94,0.0
52473.0,STARLINK-3879,PAYLOAD,2023-10-04 18:11:55,15.08849508,0.0001038,53.2166,80.712,83.0108,277.1002,0.00021884,3.198e-05,0.0,0 STARLINK-3879,1 52473U 22049Y   23277.75827930  .00003198  00000-0  21884-3 0  9997,2 52473  53.2166  80.7120 0001038  83.0108 277.1002 15.08849508 78514,6917.851,95.437,540.434,538.998,0.0
52473.0,STARLINK-3879,PAYLOAD,2023-10-05 03:44:14,15.08848654,0.0001002,53.2166,78.9285,86.2239,273.8868,0.00020534,2.982e-05,0.0,0 STARLINK-3879,1 52473U 22049Y   23278.15571858  .00002982  00000-0  20534-3 0  9998,2 52473  53.2166  78.9285 0001002  86.2239 273.8868 15.08848654 78419,6917.854,95.437,540.412,539.026,0.0
52473.0,STARLINK-3879,PAYLOAD,2023-10-05 18:02:42,15.08840394,0.0001274,53.2169,76.251,83.7272,276.3865,4.8978e-05,4.92e-06,0.0,0 STARLINK-3879,1 52473U 22049Y   23278.75188357  .00000492  00000-0  48978-4 0  9999,2 52473  53.2169  76.2510 0001274  83.7272 276.3865 15.08840394 78669,6917.879,95.438,540.626,538.863,0.0
52473.0,STARLINK-3879,PAYLOAD,2023-10-06 09:56:34,15.08835986,0.0001257,53.2168,73.2791,77.2321,282.8811,-3.1694e-05,-7.92e-06,0.0,0 STARLINK-3879,1 52473U 22049Y   23279.41428873 -.00000792  00000-0 -31694-4 0  9995,2 52473  53.2168  73.2791 0001257  77.2321 282.8811 15.08835986 78765,6917.893,95.438,540.627,538.888,0.0
52473.0,STARLINK-3879,PAYLOAD,2023-10-06 17:53:29,15.08841404,0.0001137,53.2171,71.7915,90.4534,269.6588,5.4286e-05,5.76e-06,0.0,0 STARLINK-3879,1 52473U 22049Y   23279.74548562  .00000576  00000-0  54286-4 0  9999,2 52473  53.2171  71.7915 0001137  90.4534 269.6588 15.08841404 78654,6917.876,95.437,540.528,538.955,0.0
52473.0,STARLINK-3879,PAYLOAD,2023-10-07 12:58:08,15.08835632,0.0001261,53.2171,68.2233,81.2576,278.8559,0.00015852,2.236e-05,0.0,0 STARLINK-3879,1 52473U 22049Y   23280.54037245  .00002236  00000-0  15852-3 0  9990,2 52473  53.2171  68.2233 0001261  81.2576 278.8559 15.08835632 78779,6917.894,95.438,540.631,538.886,0.0
52473.0,STARLINK-3879,PAYLOAD,2023-10-07 19:19:40,15.08848145,0.0001222,53.2172,67.0325,90.1058,270.0074,0.0002671,3.966e-05,0.0,0 STARLINK-3879,1 52473U 22049Y   23280.80532677  .00003966  00000-0  26710-3 0  9994,2 52473  53.2172  67.0325 0001222  90.1058 270.0074 15.08848145 78971,6917.855,95.437,540.566,538.875,0.0
52473.0,STARLINK-3879,PAYLOAD,2023-10-08 09:38:09,15.08834982,0.0001053,53.2174,64.3551,96.5065,263.6047,0.00012351,1.678e-05,0.0,0 STARLINK-3879,1 52473U 22049Y   23281.40149383  .00001678  00000-0  12351-3 0  9993,2 52473  53.2174  64.3551 0001053  96.5065 263.6047 15.08834982 79067,6917.896,95.438,540.489,539.032,0.0
52473.0,STARLINK-3879,PAYLOAD,2023-10-08 12:48:55,15.08840684,0.0001317,53.2178,63.7631,83.0131,277.1011,0.00013133,1.803e-05,0.0,0 STARLINK-3879,1 52473U 22049Y   23281.53397037  .00001803  00000-0  13133-3 0  9997,2 52473  53.2178  63.7631 0001317  83.0131 277.1011 15.08840684 78922,6917.878,95.438,540.654,538.832,0.0
52473.0,STARLINK-3879,PAYLOAD,2023-10-08 15:59:41,15.08847194,0.0001356,53.2168,63.1682,84.9399,275.1748,0.00023777,3.499e-05,0.0,0 STARLINK-3879,1 52473U 22049Y   23281.66644751  .00003499  00000-0  23777-3 0  9997,2 52473  53.2168  63.1682 0001356  84.9399 275.1748 15.08847194 79109,6917.858,95.437,540.661,538.785,0.0
52473.0,STARLINK-3879,PAYLOAD,2023-10-08 19:10:26,15.08854009,0.0001432,53.2171,62.5716,95.1319,264.9837,0.00026674,3.961e-05,0.0,0 STARLINK-3879,1 52473U 22049Y   23281.79892358  .00003961  00000-0  26674-3 0  9992,2 52473  53.2171  62.5716 0001432  95.1319 264.9837 15.08854009 78966,6917.838,95.437,540.693,538.712,0.0
52473.0,STARLINK-3879,PAYLOAD,2023-10-09 09:28:55,15.08841691,0.0001728,53.2175,59.8953,95.5337,264.5852,0.00012932,1.771e-05,0.0,0 STARLINK-3879,1 52473U 22049Y   23282.39509153  .00001771  00000-0  12932-3 0  9996,2 52473  53.2175  59.8953 0001728  95.5337 264.5852 15.08841691 79219,6917.875,95.437,540.936,538.545,0.0
52473.0,STARLINK-3879,PAYLOAD,2023-10-09 12:39:42,15.08841387,0.0001541,53.2171,59.3001,101.9559,258.1606,0.00010033,1.309e-05,0.0,0 STARLINK-3879,1 52473U 22049Y   23282.52756987  .00001309  00000-0  10033-3 0  9997,2 52473  53.2171  59.3001 0001541 101.9559 258.1606 15.08841387 79077,6917.876,95.437,540.807,538.675,0.0
52473.0,STARLINK-3879,PAYLOAD,2023-10-09 15:50:28,15.08845783,0.0001393,53.2171,58.7061,90.8386,269.2766,0.00022645,3.318e-05,0.0,0 STARLINK-3879,1 52473U 22049Y   23282.66005102  .00003318  00000-0  22645-3 0  9992,2 52473  53.2171  58.7061 0001393  90.8386 269.2766 15.08845783 79091,6917.863,95.437,540.691,538.764,0.0
52473.0,STARLINK-3879,PAYLOAD,2023-10-10 12:30:29,15.08846276,0.000146,53.2169,54.8408,90.6469,269.469,0.0002017,2.924e-05,0.0,0 STARLINK-3879,1 52473U 22049Y   23283.52116990  .00002924  00000-0  20170-3 0  9999,2 52473  53.2169  54.8408 0001460  90.6469 269.4690 15.08846276 79383,6917.861,95.437,540.736,538.716,0.0
52473.0,STARLINK-3879,PAYLOAD,2023-10-10 14:05:52,15.08847338,0.0001403,53.2171,54.5431,93.0414,267.0739,0.00021688,3.166e-05,0.0,0 STARLINK-3879,1 52473U 22049Y   23283.58740843  .00003166  00000-0  21688-3 0  9999,2 52473  53.2171  54.5431 0001403  93.0414 267.0739 15.08847338 79235,6917.858,95.437,540.694,538.752,0.0
52473.0,STARLINK-3879,PAYLOAD,2023-10-10 15:41:15,15.08851063,0.0001374,53.217,54.2456,93.7162,266.3987,0.00029001,4.332e-05,0.0,0 STARLINK-3879,1 52473U 22049Y   23283.65364670  .00004332  00000-0  29001-3 0  9990,2 52473  53.2170  54.2456 0001374  93.7162 266.3987 15.08851063 79240,6917.847,95.437,540.662,538.761,0.0
52473.0,STARLINK-3879,PAYLOAD,2023-10-11 12:21:16,15.08840826,0.0001509,53.2185,50.3826,94.8165,265.3,7.552e-05,9.14e-06,0.0,0 STARLINK-3879,1 52473U 22049Y   23284.51477010  .00000914  00000-0  75520-4 0  9999,2 52473  53.2185  50.3826 0001509  94.8165 265.3000 15.08840826 79531,6917.878,95.438,540.787,538.699,0.0
52473.0,STARLINK-3879,PAYLOAD,2023-10-11 13:56:39,15.08844246,0.0001631,53.2185,50.0839,89.7364,270.3815,0.00017613,2.517e-05,0.0,0 STARLINK-3879,1 52473U 22049Y   23284.58100945  .00002517  00000-0  17613-3 0  9995,2 52473  53.2185  50.0839 0001631  89.7364 270.3815 15.08844246 79385,6917.867,95.437,540.861,538.604,0.0
52473.0,STARLINK-3879,PAYLOAD,2023-10-12 13:47:26,15.08838608,0.0001581,53.2191,45.6249,93.7981,266.3192,-1.1968e-05,-4.78e-06,0.0,0 STARLINK-3879,1 52473U 22049Y   23285.57461161 -.00000478  00000-0 -11968-4 0  9999,2 52473  53.2191  45.6249 0001581  93.7981 266.3192 15.08838608 79536,6917.885,95.438,540.843,538.656,0.0
52473.0,STARLINK-3879,PAYLOAD,2023-10-12 15:22:49,15.08840939,0.000163,53.2193,45.3306,105.4784,254.6388,6.7557e-05,7.87e-06,0.0,0 STARLINK-3879,1 52473U 22049Y   23285.64085076  .00000787  00000-0  67557-4 0  9990,2 52473  53.2193  45.3306 0001630 105.4784 254.6388 15.08840939 79702,6917.878,95.437,540.87,538.615,0.0
52473.0,STARLINK-3879,PAYLOAD,2023-10-13 12:02:50,15.08832738,0.0001346,53.2188,41.4603,77.0901,283.0241,-0.0001276,-2.318e-05,0.0,0 STARLINK-3879,1 52473U 22049Y   23286.50197688 -.00002318  00000-0 -12760-3 0  9998,2 52473  53.2188  41.4603 0001346  77.0901 283.0241 15.08832738 79838,6917.903,95.438,540.699,538.836,0.0
52473.0,STARLINK-3879,PAYLOAD,2023-10-13 13:38:13,15.08845362,0.0001692,53.2186,41.1629,65.7,294.4169,7.8843e-05,9.67e-06,0.0,0 STARLINK-3879,1 52473U 22049Y   23286.56821274  .00000967  00000-0  78843-4 0  9990,2 52473  53.2186  41.1629 0001692  65.7000 294.4169 15.08845362 79684,6917.864,95.437,540.9,538.558,0.0
52473.0,STARLINK-3879,PAYLOAD,2023-10-13 15:13:36,15.08845653,0.0001644,53.2184,40.8653,68.891,291.2258,8.303e-05,1.034e-05,0.0,0 STARLINK-3879,1 52473U 22049Y   23286.63445225  .00001034  00000-0  83030-4 0  9996,2 52473  53.2184  40.8653 0001644  68.8910 291.2258 15.08845653 79852,6917.863,95.437,540.865,538.591,0.0
52473.0,STARLINK-3879,PAYLOAD,2023-10-14 07:07:28,15.08840806,0.0001605,53.2178,37.8936,70.0472,290.0693,0.00020926,3.044e-05,0.0,0 STARLINK-3879,1 52473U 22049Y   23287.29685667  .00003044  00000-0  20926-3 0  9992,2 52473  53.2178  37.8936 0001605  70.0472 290.0693 15.08840806 79956,6917.878,95.438,540.853,538.633,0.0
52473.0,STARLINK-3879,PAYLOAD,2023-10-14 13:29:00,15.08852643,0.0001493,53.2177,36.7052,75.1799,284.9358,0.00024503,3.615e-05,0.0,0 STARLINK-3879,1 52473U 22049Y   23287.56180975  .00003615  00000-0  24503-3 0  9993,2 52473  53.2177  36.7052 0001493  75.1799 284.9358 15.08852643 79834,6917.842,95.437,540.74,538.674,0.0
